[{"OBJECT_NAME":"STARLINK-31809","OBJECT_ID":"2024-090P","EPOCH":"2026-03-09T07:33:02.274624","MEAN_MOTION":15.27574983,"ECCENTRICITY":0.00010799,"INCLINATION":43.0002,"RA_OF_ASC_NODE":178.6175,"ARG_OF_PERICENTER":298.3904,"MEAN_ANOMALY":61.6839,"EPHEMERIS_TYPE":0,"CLASSIFICATION_TYPE":"U","NORAD_CAT_ID":59743,"ELEMENT_SET_NO":999,"REV_AT_EPOCH":10346,"BSTAR":-2.2778375e-5,"MEAN_MOTION_DOT":-8.89e-6,"MEAN_MOTION_DDOT":0},{"OBJECT_NAME":"TEVEL2-8","OBJECT_ID":"2025-052AF","EPOCH":"2026-03-09T16:02:08.542752","MEAN_MOTION":15.28392908,"ECCENTRICITY":0.0008031,"INCLINATION":97.4055,"RA_OF_ASC_NODE":324.2923,"ARG_OF_PERICENTER":124.9191,"MEAN_ANOMALY":235.2804,"EPHEMERIS_TYPE":0,"CLASSIFICATION_TYPE":"U","NORAD_CAT_ID":63239,"ELEMENT_SET_NO":999,"REV_AT_EPOCH":5480,"BSTAR":0.00069303947,"MEAN_MOTION_DOT":0.0001913,"MEAN_MOTION_DDOT":0}]
